OBJECT_NAME,OBJECT_ID,EPOCH,MEAN_MOTION,ECCENTRICITY,INCLINATION,RA_OF_ASC_NODE,ARG_OF_PERICENTER,MEAN_ANOMALY,EPHEMERIS_TYPE,CLASSIFICATION_TYPE,NORAD_CAT_ID,ELEMENT_SET_NO,REV_AT_EPOCH,BSTAR,MEAN_MOTION_DOT,MEAN_MOTION_DDOT
ONEWEB-0278,2021-060AF,2026-07-14T02:13:35.812704,13.16594437,.0002226,87.9080,223.4299,89.4083,270.7303,0,U,48996,999,24323,.13615E-3,.65E-6,0
ONEWEB-0279,2021-060AG,2026-07-14T02:24:59.685120,13.16594868,.0001989,87.9083,223.4259,99.3599,260.7757,0,U,48997,999,24316,.16756E-3,.77E-6,0
ONEWEB-0280,2021-060AH,2026-07-14T02:46:38.747136,13.16595054,.0002424,87.9080,223.4275,94.9418,265.1990,0,U,48998,999,24310,.22112E-5,.14E-6,0
ONEWEB-0281,2021-060AJ,2026-07-14T02:54:37.863648,13.16593330,.0002086,87.9080,223.4221,92.3237,267.8133,0,U,48999,999,24317,-.5475E-4,-.8E-7,0
ONEWEB-0282,2021-060AK,2026-07-14T03:37:56.874144,13.16594791,.0002139,87.9075,223.4240,96.8286,263.3088,0,U,49000,999,24315,.10849E-3,.54E-6,0
ONEWEB-0283,2021-060AL,2026-07-14T03:21:59.030784,13.16593184,.0001986,87.9075,223.4255,98.1714,261.9642,0,U,49001,999,24316,.12081E-3,.59E-6,0
ONEWEB-0284,2021-060AM,2026-07-14T03:12:52.662240,13.16593541,.0002373,87.9080,223.4203,92.7631,267.3772,0,U,49002,999,24314,.48547E-4,.31E-6,0
ONEWEB-0285,2021-075A,2026-07-13T21:29:54.400128,13.12439257,.0001837,87.8969,345.3519,91.1532,268.9807,0,U,49075,999,23871,.15096E-2,.556E-5,0
ONEWEB-0286,2021-075B,2026-07-13T22:53:51.697248,13.12441734,.0001749,87.8959,345.3543,88.8221,271.3108,0,U,49076,999,23807,.10583E-2,.393E-5,0
ONEWEB-0287,2021-075C,2026-07-13T23:19:50.939040,13.17648210,.0001866,87.9142,0.5366,79.0372,281.0970,0,U,49077,999,23715,.77259E-4,.43E-6,0
ONEWEB-0288,2021-075D,2026-07-13T22:19:53.700096,13.12443089,.0001973,87.8967,345.3382,89.4650,270.6704,0,U,49078,999,23869,.27604E-3,.112E-5,0
ONEWEB-0289,2021-075E,2026-07-14T00:15:44.466048,13.17649990,.0002276,87.9150,0.5473,96.7398,263.3993,0,U,49079,999,23773,.64117E-4,.38E-6,0
ONEWEB-0290,2021-075F,2026-07-13T23:36:51.646176,13.17650292,.0002331,87.9153,0.5254,96.8545,263.2852,0,U,49080,999,23714,.51507E-4,.33E-6,0
ONEWEB-0291,2021-075G,2026-07-13T23:15:00.724032,13.17646710,.0002116,87.9143,0.5343,84.9738,275.1635,0,U,49081,999,23713,.65409E-4,.38E-6,0
ONEWEB-0293,2021-075H,2026-07-13T23:51:26.045280,13.17650481,.000202,87.9144,0.5316,92.8845,267.2517,0,U,49082,999,23716,.29901E-4,.24E-6,0
ONEWEB-0294,2021-075J,2026-07-13T22:29:39.198336,13.12502446,.0002499,87.8968,345.3408,101.2284,258.9126,0,U,49083,999,23808,-.30926E-1,-.11109E-3,0
ONEWEB-0295,2021-075K,2026-07-13T23:50:13.737120,13.17650188,.0002004,87.9143,0.5361,84.9181,275.2180,0,U,49084,999,23712,.23162E-4,.22E-6,0
ONEWEB-0296,2021-075L,2026-07-13T22:00:22.566240,13.12443616,.0002055,87.8967,345.3529,88.2867,271.8497,0,U,49085,999,23808,-.91635E-3,-.317E-5,0
ONEWEB-0297,2021-075M,2026-07-13T20:54:30.964608,13.12442500,.0001878,87.8956,345.3691,92.6187,267.5157,0,U,49086,999,23868,.95508E-3,.356E-5,0
ONEWEB-0298,2021-075N,2026-07-13T23:56:31.714656,13.17649066,.0001736,87.9145,0.5334,89.1844,270.9486,0,U,49087,999,23715,.16313E-3,.76E-6,0
ONEWEB-0299,2021-075P,2026-07-13T23:58:43.963680,13.17648379,.0001837,87.9155,0.5155,85.6232,274.5110,0,U,49088,999,23713,.90357E-4,.48E-6,0
ONEWEB-0300,2021-075Q,2026-07-13T22:33:19.158048,13.12442966,.000148,87.8971,345.3380,94.3388,265.7910,0,U,49089,999,23871,.95721E-3,.357E-5,0
ONEWEB-0301,2021-075R,2026-07-13T22:10:07.889952,13.12443961,.0001526,87.8968,345.3390,99.5051,260.6250,0,U,49090,999,23807,-.47019E-3,-.156E-5,0
ONEWEB-0302,2021-075S,2026-07-13T20:00:50.203296,13.12441600,.0002188,87.8965,345.3691,94.6101,265.5277,0,U,49091,999,23804,-.11289E-2,-.393E-5,0
ONEWEB-0304,2021-075T,2026-07-13T23:22:16.898016,13.17647491,.0001929,87.9142,0.5409,87.3214,272.8139,0,U,49092,999,23710,-.2772E-3,-.95E-6,0
ONEWEB-0305,2021-075U,2026-07-13T23:12:33.756768,13.17647804,.000194,87.9150,0.5284,80.3487,279.7863,0,U,49093,999,23713,-.98211E-4,-.25E-6,0
ONEWEB-0308,2021-075V,2026-07-13T21:40:51.077280,13.12442079,.000184,87.8970,345.3476,96.3150,263.8188,0,U,49094,999,23806,-.10884E-2,-.379E-5,0
ONEWEB-0309,2021-075W,2026-07-13T23:17:25.018080,13.17650023,.0002353,87.9143,0.5346,93.7184,266.4217,0,U,49095,999,23710,.61009E-4,.37E-6,0
ONEWEB-0310,2021-075X,2026-07-13T22:02:48.577056,13.12443990,.0001867,87.8961,345.3638,96.2061,263.9280,0,U,49096,999,23869,-.7531E-3,-.258E-5,0
ONEWEB-0311,2021-075Y,2026-07-13T23:27:08.467776,13.17648381,.0001749,87.9140,0.5330,78.8338,281.2990,0,U,49097,999,23715,.35908E-4,.27E-6,0
ONEWEB-0312,2021-075Z,2026-07-13T23:49:01.200000,13.17648538,.0002045,87.9141,0.5402,85.3573,274.7792,0,U,49098,999,23713,.7377E-4,.42E-6,0
